{"type": "FeatureCollection", "features": [ {"type": "Feature", "properties": {"norad_id": 34375, "name": "IRIDIUM 33 DEB", "group": "iridium-33-debris", "lat": -45.4543198459515, "lon": 7.674447402720449, "alt_km": 836.0083362071773, "timestamp": "2025-12-09T09:46:48.030626+00:00", "meta": {"OBJECT_NAME": "IRIDIUM 33 DEB", "OBJECT_ID": "1997-051FT", "EPOCH": "2025-12-09T01:01:12.012960", "MEAN_MOTION": 14.17981407, "ECCENTRICITY": 0.0103035, "INCLINATION": 86.4326, "RA_OF_ASC_NODE": 184.1877, "ARG_OF_PERICENTER": 138.3544, "MEAN_ANOMALY": 23.8755, "EPHEMERIS_TYPE": 0, "CLASSIFICATION_TYPE": "U", "NORAD_CAT_ID": 34375, "ELEMENT_SET_NO": 999, "REV_AT_EPOCH": 86659, "BSTAR": 0.00056641, "MEAN_MOTION_DOT": 1.241e-05, "MEAN_MOTION_DDOT": 0}, "tle": {"line1": "1 34375U 97051FT  25343.04250015  .00001241  00000+0  56641-3 0  9990", "line2": "2 34375  86.4326 184.1877 0103035 138.3544  23.8755 14.17981407866595"}}, "geometry": {"type": "Point", "coordinates": [7.674447402720449, -45.4543198459515]}}, {"type": "Feature", "properties": {"norad_id": 34376, "name": "IRIDIUM 33 DEB", "group": "iridium-33-debris", "lat": 62.53460254541276, "lon": 15.191930104142834, "alt_km": 687.127635489449, "timestamp": "2025-12-09T09:46:48.030637+00:00", "meta": {"OBJECT_NAME": "IRIDIUM 33 DEB", "OBJECT_ID": "1997-051FU", "EPOCH": "2025-12-09T01:16:56.149824", "MEAN_MOTION": 14.62483707, "ECCENTRICITY": 0.002673, "INCLINATION": 86.2984, "RA_OF_ASC_NODE": 8.1966, "ARG_OF_PERICENTER": 179.1594, "MEAN_ANOMALY": 180.9667, "EPHEMERIS_TYPE": 0, "CLASSIFICATION_TYPE": "U", "NORAD_CAT_ID": 34376, "ELEMENT_SET_NO": 999, "REV_AT_EPOCH": 87953, "BSTAR": 0.0016761, "MEAN_MOTION_DOT": 8.56e-05, "MEAN_MOTION_DDOT": 0}, "tle": {"line1": "1 34376U 97051FU  25343.05342766  .00008560  00000+0  16761-2 0  9996", "line2": "2 34376  86.2984   8.1966 0026730 179.1594 180.9667 14.62483707879537"}}, "geometry": {"type": "Point", "coordinates": [15.191930104142834, 62.53460254541276]}}, {"type": "Feature", "properties": {"norad_id": 34486, "name": "IRIDIUM 33 DEB", "group": "iridium-33-debris", "lat": -62.60981821071646, "lon": -159.44642370909742, "alt_km": 592.5545825535537, "timestamp": "2025-12-09T09:46:48.030664+00:00", "meta": {"OBJECT_NAME": "IRIDIUM 33 DEB", "OBJECT_ID": "1997-051GB", "EPOCH": "2025-12-09T02:32:24.431712", "MEAN_MOTION": 14.95535062, "ECCENTRICITY": 0.0013377, "INCLINATION": 86.394, "RA_OF_ASC_NODE": 13.7018, "ARG_OF_PERICENTER": 124.1656, "MEAN_ANOMALY": 295.4203, "EPHEMERIS_TYPE": 0, "CLASSIFICATION_TYPE": "U", "NORAD_CAT_ID": 34486, "ELEMENT_SET_NO": 999, "REV_AT_EPOCH": 88932, "BSTAR": 0.0024816, "MEAN_MOTION_DOT": 0.00027645, "MEAN_MOTION_DDOT": 0}, "tle": {"line1": "1 34486U 97051GB  25343.10583833  .00027645  00000+0  24816-2 0  9991", "line2": "2 34486  86.3940  13.7018 0013377 124.1656 295.4203 14.95535062889328"}}, "geometry": {"type": "Point", "coordinates": [-159.44642370909742, -62.60981821071646]}}, {"type": "Feature", "properties": {"norad_id": 34487, "name": "IRIDIUM 33 DEB", "group": "iridium-33-debris", "lat": 13.262337222139253, "lon": -167.05156289586793, "alt_km": 728.5923017881032, "timestamp": "2025-12-09T09:46:48.030676+00:00", "meta": {"OBJECT_NAME": "IRIDIUM 33 DEB", "OBJECT_ID": "1997-051GC", "EPOCH": "2025-12-09T02:36:24.393024", "MEAN_MOTION": 14.43208677, "ECCENTRICITY": 0.0032494, "INCLINATION": 86.3437, "RA_OF_ASC_NODE": 13.9406, "ARG_OF_PERICENTER": 139.8025, "MEAN_ANOMALY": 274.7382, "EPHEMERIS_TYPE": 0, "CLASSIFICATION_TYPE": "U", "NORAD_CAT_ID": 34487, "ELEMENT_SET_NO": 999, "REV_AT_EPOCH": 88196, "BSTAR": 0.00027735, "MEAN_MOTION_DOT": 9.58e-06, "MEAN_MOTION_DDOT": 0}, "tle": {"line1": "1 34487U 97051GC  25343.10861566  .00000958  00000+0  27735-3 0  9996", "line2": "2 34487  86.3437  13.9406 0032494 139.8025 274.7382 14.43208677881969"}}, "geometry": {"type": "Point", "coordinates": [-167.05156289586793, 13.262337222139253]}}, {"type": "Feature", "properties": {"norad_id": 34488, "name": "IRIDIUM 33 DEB", "group": "iridium-33-debris", "lat": -9.719390635688912, "lon": 128.0925893871616, "alt_km": 492.57357262545884, "timestamp": "2025-12-09T09:46:48.030688+00:00", "meta": {"OBJECT_NAME": "IRIDIUM 33 DEB", "OBJECT_ID": "1997-051GD", "EPOCH": "2025-12-08T21:57:07.266816", "MEAN_MOTION": 15.27997887, "ECCENTRICITY": 0.0014352, "INCLINATION": 86.3246, "RA_OF_ASC_NODE": 307.7053, "ARG_OF_PERICENTER": 57.4212, "MEAN_ANOMALY": 302.8418, "EPHEMERIS_TYPE": 0, "CLASSIFICATION_TYPE": "U", "NORAD_CAT_ID": 34488, "ELEMENT_SET_NO": 999, "REV_AT_EPOCH": 89181, "BSTAR": 0.0052155, "MEAN_MOTION_DOT": 0.00145336, "MEAN_MOTION_DDOT": 0}, "tle": {"line1": "1 34488U 97051GD  25342.91466744  .00145336  00000+0  52155-2 0  9997", "line2": "2 34488  86.3246 307.7053 0014352  57.4212 302.8418 15.27997887891815"}}, "geometry": {"type": "Point", "coordinates": [128.0925893871616, -9.719390635688912]}}, {"type": "Feature", "properties": {"norad_id": 34492, "name": "IRIDIUM 33 DEB", "group": "iridium-33-debris", "lat": 74.39547812145487, "lon": 143.21552902590915, "alt_km": 908.6593321192859, "timestamp": "2025-12-09T09:46:48.030699+00:00", "meta": {"OBJECT_NAME": "IRIDIUM 33 DEB", "OBJECT_ID": "1997-051GH", "EPOCH": "2025-12-07T23:50:44.784960", "MEAN_MOTION": 14.25534668, "ECCENTRICITY": 0.0189621, "INCLINATION": 86.4724, "RA_OF_ASC_NODE": 336.5463, "ARG_OF_PERICENTER": 253.6464, "MEAN_ANOMALY": 161.0806, "EPHEMERIS_TYPE": 0, "CLASSIFICATION_TYPE": "U", "NORAD_CAT_ID": 34492, "ELEMENT_SET_NO": 999, "REV_AT_EPOCH": 84991, "BSTAR": 0.0068533726, "MEAN_MOTION_DOT": 0.00019616, "MEAN_MOTION_DDOT": 0}, "tle": {"line1": "1 34492U 97051GH  25341.99357390  .00019616  00000+0  68534-2 0  9994", "line2": "2 34492  86.4724 336.5463 0189621 253.6464 161.0806 14.25534668849919"}}, "geometry": {"type": "Point", "coordinates": [143.21552902590915, 74.39547812145487]}}, {"type": "Feature", "properties": {"norad_id": 34497, "name": "IRIDIUM 33 DEB", "group": "iridium-33-debris", "lat": -37.019045364439066, "lon": 51.01188315383058, "alt_km": 756.1545065998889, "timestamp": "2025-12-09T09:46:48.030710+00:00", "meta": {"OBJECT_NAME": "IRIDIUM 33 DEB", "OBJECT_ID": "1997-051GN", "EPOCH": "2025-12-08T05:36:30.454848", "MEAN_MOTION": 14.27433857, "ECCENTRICITY": 0.00792669, "INCLINATION": 86.2781, "RA_OF_ASC_NODE": 54.3266, "ARG_OF_PERICENTER": 354.2573, "MEAN_ANOMALY": 60.9681, "EPHEMERIS_TYPE": 0, "CLASSIFICATION_TYPE": "U", "NORAD_CAT_ID": 34497, "ELEMENT_SET_NO": 999, "REV_AT_EPOCH": 86819, "BSTAR": 0.00099948943, "MEAN_MOTION_DOT": 2.553e-05, "MEAN_MOTION_DDOT": 0}, "tle": {"line1": "1 34497U 97051GN  25342.23368582  .00002553  00000+0  99949-3 0  9999", "line2": "2 34497  86.2781  54.3266 0079266 354.2573  60.9681 14.27433857868192"}}, "geometry": {"type": "Point", "coordinates": [51.01188315383058, -37.019045364439066]}}, {"type": "Feature", "properties": {"norad_id": 34508, "name": "IRIDIUM 33 DEB", "group": "iridium-33-debris", "lat": -9.73165331607289, "lon": 103.4319351277967, "alt_km": 813.8664120873391, "timestamp": "2025-12-09T09:46:48.030721+00:00", "meta": {"OBJECT_NAME": "IRIDIUM 33 DEB", "OBJECT_ID": "1997-051GZ", "EPOCH": "2025-12-08T20:28:07.821120", "MEAN_MOTION": 14.38371181, "ECCENTRICITY": 0.0065865, "INCLINATION": 86.3703, "RA_OF_ASC_NODE": 104.2908, "ARG_OF_PERICENTER": 185.485, "MEAN_ANOMALY": 174.5635, "EPHEMERIS_TYPE": 0, "CLASSIFICATION_TYPE": "U", "NORAD_CAT_ID": 34508, "ELEMENT_SET_NO": 999, "REV_AT_EPOCH": 87253, "BSTAR": 0.0019764, "MEAN_MOTION_DOT": 6.195e-05, "MEAN_MOTION_DDOT": 0}, "tle": {"line1": "1 34508U 97051GZ  25342.85286830  .00006195  00000+0  19764-2 0  9997", "line2": "2 34508  86.3703 104.2908 0065865 185.4850 174.5635 14.38371181872537"}}, "geometry": {"type": "Point", "coordinates": [103.4319351277967, -9.73165331607289]}}, {"type": "Feature", "properties": {"norad_id": 34521, "name": "IRIDIUM 33 DEB", "group": "iridium-33-debris", "lat": -49.17691808652929, "lon": -143.7822773249144, "alt_km": 688.601960757278, "timestamp": "2025-12-09T09:46:48.030732+00:00", "meta": {"OBJECT_NAME": "IRIDIUM 33 DEB", "OBJECT_ID": "1997-051HN", "EPOCH": "2025-12-09T03:48:43.130592", "MEAN_MOTION": 14.63316312, "ECCENTRICITY": 0.0001218, "INCLINATION": 86.3799, "RA_OF_ASC_NODE": 32.1245, "ARG_OF_PERICENTER": 240.0479, "MEAN_ANOMALY": 120.0612, "EPHEMERIS_TYPE": 0, "CLASSIFICATION_TYPE": "U", "NORAD_CAT_ID": 34521, "ELEMENT_SET_NO": 999, "REV_AT_EPOCH": 88420, "BSTAR": 0.0010832, "MEAN_MOTION_DOT": 5.611e-05, "MEAN_MOTION_DDOT": 0}, "tle": {"line1": "1 34521U 97051HN  25343.15883253  .00005611  00000+0  10832-2 0  9997", "line2": "2 34521  86.3799  32.1245 0001218 240.0479 120.0612 14.63316312884208"}}, "geometry": {"type": "Point", "coordinates": [-143.7822773249144, -49.17691808652929]}}, {"type": "Feature", "properties": {"norad_id": 34525, "name": "IRIDIUM 33 DEB", "group": "iridium-33-debris", "lat": -66.65333556879301, "lon": 39.81582628406821, "alt_km": 760.9235670062662, "timestamp": "2025-12-09T09:46:48.030742+00:00", "meta": {"OBJECT_NAME": "IRIDIUM 33 DEB", "OBJECT_ID": "1997-051HS", "EPOCH": "2025-12-08T10:52:50.630592", "MEAN_MOTION": 14.42890463, "ECCENTRICITY": 0.00066346, "INCLINATION": 86.373, "RA_OF_ASC_NODE": 48.6732, "ARG_OF_PERICENTER": 105.0702, "MEAN_ANOMALY": 275.0516, "EPHEMERIS_TYPE": 0, "CLASSIFICATION_TYPE": "U", "NORAD_CAT_ID": 34525, "ELEMENT_SET_NO": 999, "REV_AT_EPOCH": 88026, "BSTAR": 0.00067150553, "MEAN_MOTION_DOT": 2.262e-05, "MEAN_MOTION_DDOT": 0}, "tle": {"line1": "1 34525U 97051HS  25342.45336378  .00002262  00000+0  67151-3 0  9990", "line2": "2 34525  86.3730  48.6732 0006634 105.0702 275.0516 14.42890463880263"}}, "geometry": {"type": "Point", "coordinates": [39.81582628406821, -66.65333556879301]}}]}